NORAD_CAT_ID,OBJECT_NAME,OBJECT_TYPE,EPOCH,MEAN_MOTION,ECCENTRICITY,INCLINATION,RA_OF_ASC_NODE,ARG_OF_PERICENTER,MEAN_ANOMALY,BSTAR,MEAN_MOTION_DOT,MEAN_MOTION_DDOT,TLE_LINE0,TLE_LINE1,TLE_LINE2,SEMIMAJOR_AXIS,PERIOD,APOGEE,PERIGEE,DECAYED
51863.0,STARLINK-3555,PAYLOAD,2022-10-30 20:49:22,15.08843418,0.0001509,53.2167,112.0535,62.136,297.9785,-7.033e-05,-1.407e-05,0.0,0 STARLINK-3555,1 51863U 22022M   22303.86762719 -.00001407  00000-0 -70330-4 0  9998,2 51863  53.2167 112.0535 0001509  62.1360 297.9785 15.08843418 38054,6917.87,95.437,540.779,538.691,0.0
51863.0,STARLINK-3555,PAYLOAD,2022-10-31 17:29:24,15.08834553,0.0001575,53.2169,108.1881,60.4444,299.6705,-1.6746e-05,-5.54e-06,0.0,0 STARLINK-3555,1 51863U 22022M   22304.72875241 -.00000554  00000-0 -16746-4 0  9992,2 51863  53.2169 108.1881 0001575  60.4444 299.6705 15.08834553 38188,6917.897,95.438,540.852,538.672,0.0
51863.0,STARLINK-3555,PAYLOAD,2022-11-01 04:37:05,15.08843447,0.0001535,53.2171,106.1064,58.5339,301.5803,-1.182e-05,-4.76e-06,0.0,0 STARLINK-3555,1 51863U 22022M   22305.19242679 -.00000476  00000-0 -11820-4 0  9998,2 51863  53.2171 106.1064 0001535  58.5339 301.5803 15.08843447 38251,6917.87,95.437,540.797,538.673,0.0
51863.0,STARLINK-3555,PAYLOAD,2022-11-01 17:20:10,15.08843423,0.0001541999999999,53.2168,103.7275,52.7793,307.334,3.5786e-05,2.82e-06,0.0,0 STARLINK-3555,1 51863U 22022M   22305.72234385  .00000282  00000-0  35786-4 0  9992,2 51863  53.2168 103.7275 0001542  52.7793 307.3340 15.08843423 38335,6917.87,95.437,540.802,538.668,0.0
51863.0,STARLINK-3555,PAYLOAD,2022-11-02 12:24:49,15.08831866,0.0001459,53.2166,100.1577,52.0223,308.09,3.957e-05,3.42e-06,0.0,0 STARLINK-3555,1 51863U 22022M   22306.51723400  .00000342  00000-0  39570-4 0  9993,2 51863  53.2166 100.1577 0001459  52.0223 308.0900 15.08831866 38458,6917.905,95.438,540.78,538.761,0.0
51863.0,STARLINK-3555,PAYLOAD,2022-11-02 18:46:21,15.08829361,0.0001469,53.2168,98.9683,51.7542,308.3583,9.8806e-06,-1.31e-06,0.0,0 STARLINK-3555,1 51863U 22022M   22306.78219777 -.00000131  00000-0  98806-5 0  9994,2 51863  53.2168  98.9683 0001469  51.7542 308.3583 15.08829361 38494,6917.913000000001,95.438,540.794,538.762,0.0
51863.0,STARLINK-3555,PAYLOAD,2022-11-03 12:15:35,15.08857212,0.0001629999999999,53.2172,95.6981,53.4141,306.7001,-0.00012847,-2.333e-05,0.0,0 STARLINK-3555,1 51863U 22022M   22307.51082622 -.00002333  00000-0 -12847-3 0  9999,2 51863  53.2172  95.6981 0001630  53.4141 306.7001 15.08857212 38604,6917.828,95.436,540.82,538.565,0.0
51863.0,STARLINK-3555,PAYLOAD,2022-11-03 18:37:08,15.08846106,0.0002186,53.2167,94.5119,48.9706,311.1475,6.911100000000001e-05,8.12e-06,0.0,0 STARLINK-3555,1 51863U 22022M   22307.77578774  .00000812  00000-0  69111-4 0  9990,2 51863  53.2167  94.5119 0002186  48.9706 311.1475 15.08846106 38641,6917.861999999999,95.437,541.239,538.214,0.0
51863.0,STARLINK-3555,PAYLOAD,2022-11-04 12:06:22,15.08837869,0.0001579,53.2174,91.238,53.7341,306.3797,0.00010082,1.317e-05,0.0,0 STARLINK-3555,1 51863U 22022M   22308.50442742  .00001317  00000-0  10082-3 0  9990,2 51863  53.2174  91.2380 0001579  53.7341 306.3797 15.08837869 38758,6917.887,95.438,540.844,538.66,0.0
51863.0,STARLINK-3555,PAYLOAD,2022-11-04 18:27:54,15.08840695,0.0001676999999999,53.2175,90.0485,51.0193,309.0948,0.00010963,1.457e-05,0.0,0 STARLINK-3555,1 51863U 22022M   22308.76938531  .00001457  00000-0  10963-3 0  9997,2 51863  53.2175  90.0485 0001677  51.0193 309.0948 15.08840695 38790,6917.878000000002,95.438,540.903,538.5830000000002,0.0
51863.0,STARLINK-3555,PAYLOAD,2022-11-05 11:57:10,15.08837872,0.0001902,53.2201,86.7823,37.3886,322.7238,-6.7172e-05,-1.357e-05,0.0,0 STARLINK-3555,1 51863U 22022M   22309.49803413 -.00001357  00000-0 -67172-4 0  9994,2 51863  53.2201  86.7823 0001902  37.3886 322.7238 15.08837872 38905,6917.887,95.438,541.068,538.436,0.0
51863.0,STARLINK-3555,PAYLOAD,2022-11-05 18:18:43,15.08830405,0.0001802,53.2187,85.5904,42.5212,317.592,-0.00012811,-2.326e-05,0.0,0 STARLINK-3555,1 51863U 22022M   22309.76300200 -.00002326  00000-0 -12811-3 0  9996,2 51863  53.2187  85.5904 0001802  42.5212 317.5920 15.08830405 38944,6917.91,95.438,541.021,538.528,0.0
51863.0,STARLINK-3555,PAYLOAD,2022-11-06 02:15:39,15.08818096,0.0001719,53.2182,84.1035,61.2336,298.8829,-8.0908e-05,-1.575e-05,0.0,0 STARLINK-3555,1 51863U 22022M   22310.09421044 -.00001575  00000-0 -80908-4 0  9992,2 51863  53.2182  84.1035 0001719  61.2336 298.8829 15.08818096 38997,6917.946999999999,95.439,541.002,538.623,0.0
51863.0,STARLINK-3555,PAYLOAD,2022-11-06 11:47:58,15.08824963,0.000157,53.2176,82.3168,52.9909,307.1227,-5.8535e-05,-1.219e-05,0.0,0 STARLINK-3555,1 51863U 22022M   22310.49164685 -.00001219  00000-0 -58535-4 0  9997,2 51863  53.2176  82.3168 0001570  52.9909 307.1227 15.08824963 39059,6917.926,95.439,540.877,538.705,0.0
51863.0,STARLINK-3555,PAYLOAD,2022-11-07 02:06:25,15.08836843,0.0001592,53.2195,79.6398,47.72,312.3927,0.00013869,1.92e-05,0.0,0 STARLINK-3555,1 51863U 22022M   22311.08779518  .00001920  00000-0  13869-3 0  9997,2 51863  53.2195  79.6398 0001592  47.7200 312.3927 15.08836843 39149,6917.89,95.438,540.856,538.654,0.0
51863.0,STARLINK-3555,PAYLOAD,2022-11-07 18:00:17,15.08833511,0.000205,53.2181,76.6695,53.7124,306.4057,0.00014392,2.003e-05,0.0,0 STARLINK-3555,1 51863U 22022M   22311.75020177  .00002003  00000-0  14392-3 0  9996,2 51863  53.2181  76.6695 0002050  53.7124 306.4057 15.08833511 39241,6917.9,95.438,541.183,538.347,0.0
51863.0,STARLINK-3555,PAYLOAD,2022-11-08 17:51:02,15.08862545,0.0001835,53.2179,72.2078,56.4276,303.6892,0.00020767,3.021e-05,0.0,0 STARLINK-3555,1 51863U 22022M   22312.74377649  .00003021  00000-0  20767-3 0  9999,2 51863  53.2179  72.2078 0001835  56.4276 303.6892 15.08862545 39394,6917.811,95.436,540.946,538.4069999999998,0.0
51863.0,STARLINK-3555,PAYLOAD,2022-11-09 14:31:05,15.08831543,0.0001774,53.2187,68.3429,46.9425,313.1715,-7.7196e-05,-1.516e-05,0.0,0 STARLINK-3555,1 51863U 22022M   22313.60492402 -.00001516  00000-0 -77196-4 0  9998,2 51863  53.2187  68.3429 0001774  46.9425 313.1715 15.08831543 39520,6917.906,95.438,540.998,538.544,0.0
51863.0,STARLINK-3555,PAYLOAD,2022-11-09 17:41:51,15.08834165,0.0001816,53.2185,67.7482,46.971,313.1434,-5.419e-05,-1.15e-05,0.0,0 STARLINK-3555,1 51863U 22022M   22313.73740244 -.00001150  00000-0 -54190-4 0  9995,2 51863  53.2185  67.7482 0001816  46.9710 313.1434 15.08834165 39547,6917.898,95.438,541.02,538.507,0.0
51863.0,STARLINK-3555,PAYLOAD,2022-11-10 08:00:19,15.08840849,0.0001686999999999,53.2188,65.0719,49.9943,310.1197,-0.00017835,-3.125e-05,0.0,0 STARLINK-3555,1 51863U 22022M   22314.33356189 -.00003125  00000-0 -17835-3 0  9991,2 51863  53.2188  65.0719 0001687  49.9943 310.1197 15.08840849 39630,6917.878000000002,95.438,540.91,538.576,0.0
51863.0,STARLINK-3555,PAYLOAD,2022-11-10 14:21:52,15.08834164,0.0001791,53.2178,63.8812,41.2044,318.9084,-0.00022029,-3.792e-05,0.0,0 STARLINK-3555,1 51863U 22022M   22314.59852910 -.00003792  00000-0 -22029-3 0  9993,2 51863  53.2178  63.8812 0001791  41.2044 318.9084 15.08834164 39670,6917.898,95.438,541.002,538.524,0.0
51863.0,STARLINK-3555,PAYLOAD,2022-11-11 06:15:44,15.08819324,0.0001844,53.2187,60.90600000000001,44.5248,315.5892,-2.1378e-05,-6.28e-06,0.0,0 STARLINK-3555,1 51863U 22022M   22315.26093599 -.00000628  00000-0 -21378-4 0  9990,2 51863  53.2187  60.9060 0001844  44.5248 315.5892 15.08819324 39776,6917.944,95.439,541.0840000000002,538.533,0.0
51863.0,STARLINK-3555,PAYLOAD,2022-11-11 12:37:16,15.08828595,0.000187,53.2175,59.7191,32.662,327.4487,0.00014002,1.94e-05,0.0,0 STARLINK-3555,1 51863U 22022M   22315.52588645  .00001940  00000-0  14002-3 0  9991,2 51863  53.2175  59.7191 0001870  32.6620 327.4487 15.08828595 39812,6917.915,95.438,541.0740000000002,538.487,0.0
51863.0,STARLINK-3555,PAYLOAD,2022-11-12 12:28:02,15.0884198,0.0001878,53.218,55.2588,40.3456,319.7676,0.00022916,3.361e-05,0.0,0 STARLINK-3555,1 51863U 22022M   22316.51947748  .00003361  00000-0  22916-3 0  9996,2 51863  53.2180  55.2588 0001878  40.3456 319.7676 15.08841980 39963,6917.874,95.437,541.039,538.44,0.0
51863.0,STARLINK-3555,PAYLOAD,2022-11-12 14:03:25,15.08844464,0.0001885,53.2181,54.9615,39.9715,320.1415,0.00024722,3.649e-05,0.0,0 STARLINK-3555,1 51863U 22022M   22316.58571557  .00003649  00000-0  24722-3 0  9990,2 51863  53.2181  54.9615 0001885  39.9715 320.1415 15.08844464 39979,6917.8669999999975,95.437,541.036,538.428,0.0
51863.0,STARLINK-3555,PAYLOAD,2022-11-12 15:38:49,15.088446,0.0001903,53.2192,54.6654,42.0513,318.0625,0.00022835,3.348e-05,0.0,0 STARLINK-3555,1 51863U 22022M   22316.65195605  .00003348  00000-0  22835-3 0  9993,2 51863  53.2192  54.6654 0001903  42.0513 318.0625 15.08844600 39985,6917.866,95.437,541.048,538.415,0.0
51863.0,STARLINK-3555,PAYLOAD,2022-11-13 10:43:27,15.08837525,0.0001713,53.2193,51.096,45.7916,314.3216,2.7076e-05,1.43e-06,0.0,0 STARLINK-3555,1 51863U 22022M   22317.44684692  .00000143  00000-0  27076-4 0  9993,2 51863  53.2193  51.0960 0001713  45.7916 314.3216 15.08837525 40102,6917.888000000001,95.438,540.938,538.568,0.0
51863.0,STARLINK-3555,PAYLOAD,2022-11-13 15:29:37,15.08830438,0.0001966,53.2193,50.2052,41.4237,318.6904,-1.2215e-05,-4.83e-06,0.0,0 STARLINK-3555,1 51863U 22022M   22317.64557308 -.00000483  00000-0 -12215-4 0  9996,2 51863  53.2193  50.2052 0001966  41.4237 318.6904 15.08830438 40134,6917.91,95.438,541.135,538.415,0.0
51863.0,STARLINK-3555,PAYLOAD,2022-11-14 12:09:37,15.08843621,0.000199,53.2184,46.3384,39.0556,321.0579,-5.7147e-05,-1.198e-05,0.0,0 STARLINK-3555,1 51863U 22022M   22318.50668739 -.00001198  00000-0 -57147-4 0  9990,2 51863  53.2184  46.3384 0001990  39.0556 321.0579 15.08843621 40260,6917.869000000002,95.437,541.111,538.3580000000002,0.0
